*******************************************************************************
 Revised: October 01, 2020            Neptune                               899
 
 PHYSICAL DATA (update 2020-Oct-01):
  Mass x10^24 (kg)      =                 Density (g/cm^3)       =  1.638
  Equat. radius (1 bar) = 24766+-15 km    Volume, 10^10 km^3     = 6254     
  Vol. mean radius (km) = 24624+-21       Polar radius (km)      = 24342+-30
  Geometric Albedo      = 0.41            Flattening             =  0.0171
  Sid. rot. period (III)= 16.11+-0.01 hr  Sid. rot. rate (rad/s) =  0.000108338 
  Mean solar day, h     =~16.11 h         
  GM (km^3/s^2)         = 6835099.97      GM 1-sigma (km^3/s^2)  = +-10 
  Equ. grav, ge (m/s^2) = 11.15           Pol. grav, gp (m/s^2)  = 11.41+-0.03
  Visual magnitude V(1,0)= -6.87
  Vis. mag. (opposition)=  +7.84          Obliquity to orbit     = 28.32 deg
  Sidereal orbit period = 164.788501027 y Sidereal orbit period  = 60189 d
  Mean daily motion     = 0.006020076dg/d Mean orbit velocity    =  5.43 km/s 
  Atmos. temp. (1 bar)  =  72+-2 K        Escape speed (1 bar)  =  23.5 km/s     
  Aroche(ice)/Rp        =  2.98           Hill's sphere rad., Rp = 4700
                                 Perihelion  Aphelion    Mean
  Solar Constant (W/m^2)         1.54        1.49        1.51
  Maximum Planetary IR (W/m^2)   0.52        0.52        0.52
  Minimum Planetary IR (W/m^2)   0.52        0.52        0.52
*******************************************************************************
 
 
*******************************************************************************
Ephemeris / WWW_USER Mon Oct 19 14:47:43 2020 Pasadena, USA      / Horizons
*******************************************************************************
Target body name: Neptune (899)                   {source: nep096}
Center body name: Solar System Barycenter (0)     {source: DE431mx}
Center-site name: BODY CENTER
*******************************************************************************
Start time      : A.D. 2020-Oct-17 00:00:00.0000 TDB
Stop  time      : A.D. 2020-Nov-16 00:00:00.0000 TDB
Step-size       : 1440 minutes
*******************************************************************************
Center geodetic : 0.00000000,0.00000000,0.0000000 {E-lon(deg),Lat(deg),Alt(km)}
Center cylindric: 0.00000000,0.00000000,0.0000000 {E-lon(deg),Dxy(km),Dz(km)}
Center radii    : (undefined)                                                  
Output units    : AU-D
Output type     : GEOMETRIC cartesian states
Output format   : 3 (position, velocity, LT, range, range-rate)
Reference frame : Ecliptic of J2000.0
*******************************************************************************
JDTDB
   X     Y     Z
   VX    VY    VZ
   LT    RG    RR
*******************************************************************************
$$SOE
2459162.500000000 = A.D. 2020-Nov-09 00:00:00.0000 TDB 
 X = 2.942545468460906E+01 Y =-5.390542677234652E+00 Z =-5.671320066230732E-01
 VX= 5.444362902056011E-04 VY= 3.106405792040124E-03 VZ=-7.618629537093563E-05
 LT= 1.728064591837939E-01 RG= 2.992051089911410E+01 RR=-2.278436770105095E-05
2459163.500000000 = A.D. 2020-Nov-10 00:00:00.0000 TDB 
 X = 2.942599913067675E+01 Y =-5.387436034114065E+00 Z =-5.672081394470938E-01
 VX= 5.445022430515275E-04 VY= 3.106834854763063E-03 VZ=-7.615665337376664E-05
 LT= 1.728063283555965E-01 RG= 2.992048824691393E+01 RR=-2.246470173523820E-05
2459164.500000000 = A.D. 2020-Nov-11 00:00:00.0000 TDB 
 X = 2.942654369356036E+01 Y =-5.384329142892800E+00 Z =-5.672844495821694E-01
 VX= 5.445817405534370E-04 VY= 3.106864823229886E-03 VZ=-7.650450990065921E-05
 LT= 1.728061998736969E-01 RG= 2.992046600096261E+01 RR=-2.205261805827214E-05
2459165.500000000 = A.D. 2020-Nov-12 00:00:00.0000 TDB 
 X = 2.942708815475092E+01 Y =-5.381222429325478E+00 Z =-5.673611515084878E-01
 VX= 5.442537478882204E-04 VY= 3.106526533855844E-03 VZ=-7.686188754911013E-05
 LT= 1.728060729631323E-01 RG= 2.992044402707952E+01 RR=-2.197490097397996E-05
2459166.500000000 = A.D. 2020-Nov-13 00:00:00.0000 TDB 
 X = 2.942763206357194E+01 Y =-5.378116072865759E+00 Z =-5.674380464506026E-01
 VX= 5.435203656446915E-04 VY= 3.106233410096177E-03 VZ=-7.685084220002230E-05
 LT= 1.728059452280759E-01 RG= 2.992042191044010E+01 RR=-2.231112916431857E-05
2459167.500000000 = A.D. 2020-Nov-14 00:00:00.0000 TDB 
 X = 2.942817520487453E+01 Y =-5.375009820545823E+00 Z =-5.675147287381656E-01
 VX= 5.428052561813053E-04 VY= 3.106352160111905E-03 VZ=-7.647617512326278E-05
 LT= 1.728058151386608E-01 RG= 2.992039938615611E+01 RR=-2.271038635197340E-05
2459168.500000000 = A.D. 2020-Nov-15 00:00:00.0000 TDB 
 X = 2.942871782249616E+01 Y =-5.371903249590736E+00 Z =-5.675910070186341E-01
 VX= 5.425132659970540E-04 VY= 3.106821861689119E-03 VZ=-7.612026373373679E-05
 LT= 1.728056836202344E-01 RG= 2.992037661444647E+01 RR=-2.275611254315932E-05
2459169.500000000 = A.D. 2020-Nov-16 00:00:00.0000 TDB 
 X = 2.942926036586173E+01 Y =-5.368796206443755E+00 Z =-5.676671028384221E-01
 VX= 5.426102125483350E-04 VY= 3.107216497967456E-03 VZ=-7.614637723450577E-05
 LT= 1.728055530913820E-01 RG= 2.992035401407627E+01 RR=-2.239843589266915E-05
